STARLINK-30712
1 57935U 23148A   25352.43793049 -.00000397  00000+0 -13025-5 0  9999
2 57935  53.1599  41.6031 0000619  98.9714 261.1357 15.30193915125989